{"type":"FeatureCollection","fuente":"Localidad. Bogot\u00e1 D.C. \u2014 Catastro Distrital / IDECA, CC BY 4.0, datos de 2022","features":[{"type":"Feature","properties":{"localidad_id":"01"},"geometry":{"type":"Polygon","coordinates":[[[-74.0118,4.6659],[-74.0127,4.6664],[-74.0145,4.6664],[-74.0145,4.667],[-74.0132,4.668],[-74.0131,4.6687],[-74.0141,4.6699],[-74.0162,4.6706],[-74.0171,4.6722],[-74.0183,4.6728],[-74.019,4.6738],[-74.0209,4.6742],[-74.0216,4.675],[-74.0229,4.675],[-74.0237,4.6758],[-74.0248,4.6755],[-74.0269,4.6759],[-74.0281,4.6755],[-74.0305,4.6756],[-74.0315,4.6774],[-74.0333,4.6778],[-74.0383,4.68],[-74.0433,4.6826],[-74.0484,4.685],[-74.05,4.6855],[-74.0572,4.6868],[-74.0468,4.7488],[-74.0467,4.751],[-74.0421,4.777],[-74.0351,4.8205],[-74.035,4.8231],[-74.0345,4.8255],[-74.0336,4.8258],[-74.0298,4.8232],[-74.0257,4.8231],[-74.0251,4.8224],[-74.0234,4.8219],[-74.0215,4.8227],[-74.0158,4.8211],[-74.0126,4.8217],[-74.0118,4.8214],[-74.0071,4.8218],[-74.0056,4.8217],[-74.0041,4.8189],[-74.0043,4.8177],[-74.0039,4.8158],[-74.0051,4.8126],[-74.005,4.8103],[-74.0036,4.8091],[-74.0028,4.8078],[-74.0007,4.8063],[-74.0004,4.8054],[-74.0013,4.8043],[-74.0012,4.8025],[-74.0029,4.801],[-74.005,4.7996],[-74.006,4.7978],[-74.0072,4.7981],[-74.0086,4.7976],[-74.0128,4.7979],[-74.0144,4.7951],[-74.0158,4.7909],[-74.016,4.7879],[-74.0166,4.7865],[-74.016,4.783],[-74.016,4.775],[-74.0166,4.7741],[-74.0165,4.7727],[-74.0174,4.7715],[-74.0174,4.7701],[-74.018,4.7693],[-74.0184,4.7677],[-74.0172,4.7659],[-74.0169,4.7639],[-74.016,4.7629],[-74.016,4.7604],[-74.0149,4.7597],[-74.0128,4.7597],[-74.0129,4.7591],[-74.0089,4.755],[-74.0088,4.7533],[-74.0095,4.7513],[-74.0097,4.7479],[-74.0085,4.747],[-74.0085,4.7461],[-74.0072,4.7421],[-74.0081,4.7404],[-74.0073,4.7392],[-74.0083,4.7358],[-74.0084,4.7326],[-74.0074,4.7314],[-74.008,4.7307],[-74.0067,4.7274],[-74.0082,4.7246],[-74.0084,4.72],[-74.0092,4.7187],[-74.0069,4.7167],[-74.0095,4.7156],[-74.01,4.7133],[-74.0108,4.7125],[-74.0105,4.7108],[-74.0114,4.7098],[-74.012,4.7046],[-74.0124,4.7031],[-74.0132,4.7022],[-74.0127,4.7011],[-74.0138,4.6987],[-74.0144,4.6958],[-74.0135,4.6949],[-74.0114,4.694],[-74.0121,4.6919],[-74.0119,4.6899],[-74.0113,4.6889],[-74.0112,4.6871],[-74.0119,4.6861],[-74.011,4.6846],[-74.0112,4.6833],[-74.0095,4.6822],[-74.0062,4.6809],[-74.005,4.6798],[-74.0036,4.6795],[-74.0033,4.6775],[-74.0022,4.6758],[-74.002,4.6746],[-74.0031,4.6729],[-74.0031,4.6719],[-74.0047,4.6697],[-74.0065,4.6678],[-74.0068,4.6661],[-74.0088,4.6638],[-74.01,4.6637],[-74.0112,4.6646],[-74.0118,4.6659]]]}},{"type":"Feature","properties":{"localidad_id":"02"},"geometry":{"type":"Polygon","coordinates":[[[-74.0018,4.6157],[-74.0037,4.6165],[-74.006,4.6158],[-74.0082,4.6157],[-74.0099,4.6169],[-74.0131,4.6186],[-74.0149,4.6177],[-74.0159,4.6159],[-74.0179,4.6145],[-74.0196,4.6141],[-74.0223,4.6139],[-74.024,4.6147],[-74.0259,4.6167],[-74.0281,4.6179],[-74.0289,4.6173],[-74.0309,4.6168],[-74.0324,4.6155],[-74.0315,4.6171],[-74.0333,4.6173],[-74.0349,4.6166],[-74.0359,4.6175],[-74.0375,4.6156],[-74.0405,4.6126],[-74.0436,4.6126],[-74.0457,4.6141],[-74.046,4.6152],[-74.0473,4.616],[-74.0487,4.6186],[-74.0494,4.6216],[-74.0514,4.6221],[-74.0553,4.6227],[-74.0567,4.6239],[-74.0587,4.624],[-74.0606,4.6244],[-74.0625,4.6253],[-74.0644,4.625],[-74.0656,4.6254],[-74.0684,4.6288],[-74.0662,4.6415],[-74.0646,4.6496],[-74.0641,4.6524],[-74.0625,4.6559],[-74.0572,4.6868],[-74.05,4.6855],[-74.0484,4.685],[-74.0433,4.6826],[-74.0383,4.68],[-74.0333,4.6778],[-74.0315,4.6774],[-74.0305,4.6756],[-74.0281,4.6755],[-74.0269,4.6759],[-74.0248,4.6755],[-74.0237,4.6758],[-74.0229,4.675],[-74.0216,4.675],[-74.0209,4.6742],[-74.019,4.6738],[-74.0183,4.6728],[-74.0171,4.6722],[-74.0162,4.6706],[-74.0141,4.6699],[-74.0131,4.6687],[-74.0132,4.668],[-74.0145,4.667],[-74.0145,4.6664],[-74.0127,4.6664],[-74.0118,4.6659],[-74.0112,4.6646],[-74.0138,4.6641],[-74.0158,4.6631],[-74.0168,4.662],[-74.0185,4.6619],[-74.0205,4.6628],[-74.0253,4.6631],[-74.0249,4.6623],[-74.026,4.6602],[-74.0256,4.657],[-74.0286,4.6545],[-74.0294,4.6529],[-74.0285,4.6521],[-74.0284,4.6493],[-74.0288,4.6474],[-74.031,4.6464],[-74.0315,4.6455],[-74.0312,4.6445],[-74.0287,4.643],[-74.0244,4.6424],[-74.0226,4.6426],[-74.0212,4.6422],[-74.0188,4.6409],[-74.0177,4.6411],[-74.0154,4.6395],[-74.0121,4.6395],[-74.0112,4.6386],[-74.0093,4.6388],[-74.0098,4.6353],[-74.0106,4.6324],[-74.0101,4.6315],[-74.0104,4.6304],[-74.0095,4.6302],[-74.0097,4.6291],[-74.0092,4.628],[-74.0097,4.6275],[-74.0094,4.6263],[-74.0073,4.6255],[-74.0037,4.6271],[-73.9994,4.6269],[-73.998,4.6281],[-73.9963,4.6288],[-73.9943,4.6291],[-73.993,4.63],[-73.9885,4.6298],[-73.987,4.6305],[-73.9866,4.6288],[-73.9874,4.6268],[-73.9915,4.6226],[-73.9922,4.6207],[-73.9912,4.6179],[-73.9921,4.6163],[-73.9945,4.6143],[-74.0018,4.6157]]]}},{"type":"Feature","properties":{"localidad_id":"03"},"geometry":{"type":"Polygon","coordinates":[[[-73.9948,4.6132],[-73.9945,4.6096],[-73.9956,4.6076],[-73.9966,4.6063],[-73.9939,4.6024],[-73.9937,4.6005],[-73.9956,4.5973],[-73.9995,4.5923],[-74.0014,4.5917],[-74.0028,4.5922],[-74.0027,4.5911],[-74.0019,4.5899],[-74.0017,4.5889],[-74.0037,4.5871],[-74.0045,4.5851],[-74.0045,4.5815],[-74.0048,4.5803],[-74.0058,4.5794],[-74.006,4.5776],[-74.0045,4.5753],[-74.0047,4.5728],[-74.0054,4.5678],[-74.0058,4.5666],[-74.0068,4.5655],[-74.0066,4.5596],[-74.0084,4.5593],[-74.0115,4.56],[-74.0143,4.5603],[-74.0181,4.5603],[-74.021,4.5593],[-74.0224,4.5562],[-74.0231,4.5558],[-74.0246,4.556],[-74.0277,4.5583],[-74.029,4.5583],[-74.0293,4.562],[-74.0308,4.5631],[-74.0316,4.5662],[-74.0325,4.5677],[-74.0317,4.5699],[-74.0318,4.5708],[-74.0337,4.5725],[-74.0346,4.5725],[-74.0359,4.5712],[-74.037,4.5722],[-74.0383,4.5717],[-74.0388,4.5724],[-74.0409,4.5717],[-74.0443,4.572],[-74.0465,4.5735],[-74.0482,4.5733],[-74.0498,4.5743],[-74.0538,4.5757],[-74.0569,4.5782],[-74.059,4.5786],[-74.0612,4.5796],[-74.0625,4.5814],[-74.0637,4.5822],[-74.0649,4.5822],[-74.0656,4.5835],[-74.0664,4.5835],[-74.0672,4.5826],[-74.0669,4.5813],[-74.0683,4.5809],[-74.0694,4.5794],[-74.0692,4.5784],[-74.07,4.577],[-74.0705,4.5778],[-74.0714,4.5765],[-74.072,4.5776],[-74.0729,4.5776],[-74.074,4.5763],[-74.0755,4.5773],[-74.0754,4.5785],[-74.0772,4.5795],[-74.0808,4.5858],[-74.0849,4.5893],[-74.089,4.5918],[-74.0853,4.5962],[-74.0828,4.5996],[-74.0811,4.602],[-74.0767,4.6081],[-74.0738,4.6134],[-74.0728,4.6154],[-74.0703,4.6202],[-74.0697,4.6216],[-74.0684,4.6288],[-74.0656,4.6254],[-74.0644,4.625],[-74.0625,4.6253],[-74.0606,4.6244],[-74.0587,4.624],[-74.0567,4.6239],[-74.0553,4.6227],[-74.0514,4.6221],[-74.0494,4.6216],[-74.0487,4.6186],[-74.0473,4.616],[-74.046,4.6152],[-74.0457,4.6141],[-74.0436,4.6126],[-74.0405,4.6126],[-74.0375,4.6156],[-74.0359,4.6175],[-74.0349,4.6166],[-74.0333,4.6173],[-74.0315,4.6171],[-74.0324,4.6155],[-74.0309,4.6168],[-74.0289,4.6173],[-74.0281,4.6179],[-74.0259,4.6167],[-74.024,4.6147],[-74.0223,4.6139],[-74.0196,4.6141],[-74.0179,4.6145],[-74.0159,4.6159],[-74.0149,4.6177],[-74.0131,4.6186],[-74.0099,4.6169],[-74.0082,4.6157],[-74.006,4.6158],[-74.0037,4.6165],[-74.0018,4.6157],[-73.9945,4.6143],[-73.9945,4.6142],[-73.9948,4.6132]],[[-74.0681,4.6014],[-74.0695,4.6008],[-74.0711,4.6006],[-74.0727,4.601],[-74.0748,4.6022],[-74.0767,4.6021],[-74.077,4.6017],[-74.0814,4.5945],[-74.0805,4.5916],[-74.0793,4.591],[-74.078,4.5911],[-74.0758,4.5898],[-74.074,4.5898],[-74.0724,4.5891],[-74.0712,4.59],[-74.0706,4.5915],[-74.0684,4.5899],[-74.0679,4.5921],[-74.0683,4.5936],[-74.0673,4.5949],[-74.0667,4.5969],[-74.0661,4.5975],[-74.0647,4.5975],[-74.0651,4.5989],[-74.0643,4.5997],[-74.0635,4.5992],[-74.0622,4.6002],[-74.0613,4.6001],[-74.0593,4.6013],[-74.0594,4.6019],[-74.0623,4.6033],[-74.0641,4.603],[-74.0652,4.6034],[-74.0671,4.6028],[-74.0681,4.6014]]]}},{"type":"Feature","properties":{"localidad_id":"04"},"geometry":{"type":"Polygon","coordinates":[[[-74.0298,4.5575],[-74.0298,4.5548],[-74.0292,4.5542],[-74.0286,4.5515],[-74.0294,4.5475],[-74.0309,4.5456],[-74.0316,4.5442],[-74.0315,4.5405],[-74.0323,4.5388],[-74.035,4.5364],[-74.0359,4.535],[-74.0366,4.5327],[-74.0373,4.5313],[-74.0381,4.5286],[-74.0387,4.5273],[-74.0391,4.525],[-74.0401,4.5229],[-74.0406,4.5191],[-74.0415,4.5177],[-74.0422,4.5146],[-74.0423,4.511],[-74.0437,4.51],[-74.0457,4.5101],[-74.0485,4.5112],[-74.0507,4.5114],[-74.053,4.5105],[-74.056,4.5083],[-74.057,4.5087],[-74.0614,4.5118],[-74.0642,4.5105],[-74.0647,4.5111],[-74.0673,4.51],[-74.0685,4.51],[-74.0689,4.5119],[-74.0698,4.5112],[-74.0705,4.5118],[-74.0704,4.5139],[-74.0719,4.5152],[-74.0718,4.5196],[-74.0714,4.5199],[-74.0707,4.5229],[-74.0697,4.5234],[-74.07,4.5244],[-74.069,4.5266],[-74.0686,4.5286],[-74.0703,4.5296],[-74.0723,4.5289],[-74.0739,4.5293],[-74.0745,4.5282],[-74.0774,4.5275],[-74.079,4.5276],[-74.0766,4.532],[-74.0784,4.5323],[-74.0791,4.5303],[-74.0798,4.5316],[-74.0805,4.5303],[-74.0817,4.5303],[-74.0818,4.5294],[-74.0803,4.5282],[-74.0802,4.5265],[-74.0828,4.5278],[-74.0835,4.5261],[-74.0844,4.5253],[-74.0844,4.5245],[-74.0872,4.5222],[-74.087,4.52],[-74.0828,4.5187],[-74.0819,4.5178],[-74.0911,4.5197],[-74.0908,4.5187],[-74.0896,4.5171],[-74.0945,4.5169],[-74.0941,4.5178],[-74.0936,4.5243],[-74.0944,4.5254],[-74.0945,4.5299],[-74.0953,4.5329],[-74.0952,4.5353],[-74.0959,4.537],[-74.0958,4.538],[-74.097,4.5399],[-74.0978,4.5387],[-74.0988,4.5404],[-74.0978,4.5414],[-74.0986,4.543],[-74.1005,4.5452],[-74.1023,4.546],[-74.1032,4.5469],[-74.1028,4.5485],[-74.1029,4.5499],[-74.1025,4.5513],[-74.1018,4.5559],[-74.1035,4.5599],[-74.1044,4.5615],[-74.1063,4.5639],[-74.1043,4.5649],[-74.1025,4.5668],[-74.0946,4.5758],[-74.0904,4.5814],[-74.0849,4.5893],[-74.0808,4.5858],[-74.0772,4.5795],[-74.0754,4.5785],[-74.0755,4.5773],[-74.074,4.5763],[-74.0729,4.5776],[-74.072,4.5776],[-74.0714,4.5765],[-74.0705,4.5778],[-74.07,4.577],[-74.0692,4.5784],[-74.0694,4.5794],[-74.0683,4.5809],[-74.0669,4.5813],[-74.0672,4.5826],[-74.0664,4.5835],[-74.0656,4.5835],[-74.0649,4.5822],[-74.0637,4.5822],[-74.0625,4.5814],[-74.0612,4.5796],[-74.059,4.5786],[-74.0569,4.5782],[-74.0538,4.5757],[-74.0498,4.5743],[-74.0482,4.5733],[-74.0465,4.5735],[-74.0443,4.572],[-74.0409,4.5717],[-74.0388,4.5724],[-74.0383,4.5717],[-74.037,4.5722],[-74.0359,4.5712],[-74.0346,4.5725],[-74.0337,4.5725],[-74.0318,4.5708],[-74.0317,4.5699],[-74.0325,4.5677],[-74.0316,4.5662],[-74.0308,4.5631],[-74.0293,4.562],[-74.029,4.5583],[-74.0298,4.5575]]]}},{"type":"Feature","properties":{"localidad_id":"05"},"geometry":{"type":"Polygon","coordinates":[[[-74.0566,4.508],[-74.0575,4.5025],[-74.0585,4.5013],[-74.0595,4.4986],[-74.0592,4.4971],[-74.0616,4.4939],[-74.0615,4.4918],[-74.0641,4.4889],[-74.0651,4.4865],[-74.0669,4.4863],[-74.0689,4.4869],[-74.0718,4.4861],[-74.0753,4.4846],[-74.0751,4.481],[-74.0753,4.4775],[-74.0761,4.4731],[-74.0751,4.4707],[-74.0752,4.4688],[-74.077,4.4659],[-74.0766,4.4635],[-74.0769,4.4618],[-74.0782,4.4609],[-74.0781,4.4619],[-74.0796,4.4617],[-74.0804,4.4608],[-74.0811,4.4586],[-74.0819,4.4579],[-74.0838,4.4575],[-74.0851,4.4567],[-74.0869,4.4576],[-74.0883,4.4589],[-74.0896,4.4592],[-74.0915,4.4582],[-74.0932,4.456],[-74.0956,4.4557],[-74.0989,4.4543],[-74.1015,4.4526],[-74.1029,4.4525],[-74.105,4.4504],[-74.1052,4.4476],[-74.1068,4.445],[-74.1091,4.4432],[-74.1102,4.4398],[-74.1102,4.4384],[-74.112,4.4353],[-74.1131,4.4307],[-74.1133,4.4233],[-74.1129,4.4179],[-74.1131,4.4161],[-74.1144,4.4132],[-74.1143,4.4121],[-74.1131,4.4101],[-74.1135,4.4086],[-74.1147,4.4061],[-74.1147,4.4026],[-74.1144,4.3996],[-74.1147,4.3977],[-74.1141,4.3955],[-74.1131,4.3943],[-74.1139,4.3893],[-74.1138,4.3865],[-74.1112,4.3859],[-74.1084,4.3823],[-74.1065,4.3807],[-74.1051,4.3786],[-74.1034,4.3779],[-74.1021,4.3779],[-74.0991,4.3788],[-74.0983,4.377],[-74.0987,4.3742],[-74.098,4.3728],[-74.0961,4.3711],[-74.0953,4.3699],[-74.0945,4.3667],[-74.0944,4.3642],[-74.0952,4.361],[-74.0978,4.3574],[-74.0971,4.3544],[-74.0973,4.353],[-74.0986,4.3501],[-74.0983,4.347],[-74.0989,4.345],[-74.0999,4.343],[-74.1024,4.339],[-74.1053,4.3368],[-74.1053,4.3358],[-74.1044,4.3337],[-74.1043,4.3328],[-74.1053,4.3305],[-74.106,4.3275],[-74.107,4.325],[-74.1092,4.324],[-74.111,4.3238],[-74.1114,4.3215],[-74.1124,4.3197],[-74.1143,4.3181],[-74.114,4.3166],[-74.1146,4.3136],[-74.1169,4.3128],[-74.1191,4.3114],[-74.1207,4.3094],[-74.1244,4.3067],[-74.1273,4.3065],[-74.1286,4.3058],[-74.13,4.3057],[-74.1324,4.3061],[-74.1339,4.3058],[-74.1375,4.3042],[-74.1406,4.3021],[-74.1434,4.2998],[-74.1465,4.2966],[-74.1518,4.2916],[-74.1535,4.2897],[-74.1573,4.2862],[-74.158,4.2853],[-74.1605,4.2837],[-74.1627,4.2831],[-74.1651,4.2831],[-74.1699,4.2823],[-74.1725,4.2827],[-74.1761,4.282],[-74.1781,4.2818],[-74.1835,4.2817],[-74.1854,4.2819],[-74.1882,4.2829],[-74.1891,4.2848],[-74.1907,4.2866],[-74.192,4.2874],[-74.195,4.2901],[-74.197,4.2884],[-74.2007,4.2849],[-74.202,4.2828],[-74.2029,4.2804],[-74.2042,4.2783],[-74.2049,4.2761],[-74.2055,4.2729],[-74.2058,4.2697],[-74.2096,4.2722],[-74.2122,4.2735],[-74.2162,4.273],[-74.2161,4.2744],[-74.2167,4.2768],[-74.2211,4.2822],[-74.221,4.2827],[-74.2187,4.2842],[-74.2163,4.2863],[-74.2159,4.2878],[-74.2159,4.2894],[-74.2152,4.2906],[-74.215,4.2925],[-74.215,4.2965],[-74.2154,4.298],[-74.215,4.301],[-74.2143,4.304],[-74.2149,4.3067],[-74.2151,4.3095],[-74.2157,4.3128],[-74.2159,4.3166],[-74.217,4.3219],[-74.2174,4.3229],[-74.2185,4.3273],[-74.2184,4.3323],[-74.218,4.3352],[-74.2182,4.3366],[-74.219,4.3374],[-74.2198,4.3402],[-74.2195,4.3423],[-74.2202,4.3458],[-74.2207,4.3536],[-74.2203,4.3565],[-74.2202,4.3588],[-74.2212,4.364],[-74.2204,4.3652],[-74.2172,4.367],[-74.2161,4.3685],[-74.2151,4.3705],[-74.2122,4.3743],[-74.2137,4.3755],[-74.2141,4.377],[-74.2126,4.3788],[-74.2108,4.3821],[-74.2105,4.3854],[-74.2109,4.3869],[-74.2041,4.3863],[-74.2029,4.3861],[-74.1995,4.3871],[-74.1953,4.3871],[-74.1932,4.3867],[-74.1918,4.386],[-74.1856,4.3849],[-74.1842,4.385],[-74.1815,4.3837],[-74.1802,4.3839],[-74.1798,4.3858],[-74.1773,4.3886],[-74.1757,4.3884],[-74.1738,4.3872],[-74.171,4.386],[-74.1696,4.3859],[-74.1678,4.3852],[-74.1666,4.3856],[-74.1655,4.387],[-74.164,4.3877],[-74.1627,4.3896],[-74.1613,4.3892],[-74.1586,4.3902],[-74.1568,4.3893],[-74.1554,4.3893],[-74.1529,4.3885],[-74.1512,4.3872],[-74.1493,4.3878],[-74.148,4.3869],[-74.1464,4.3879],[-74.1445,4.3882],[-74.1427,4.3878],[-74.1424,4.3905],[-74.1413,4.3916],[-74.1414,4.3934],[-74.1429,4.3953],[-74.1433,4.3976],[-74.1432,4.3992],[-74.1438,4.4003],[-74.1443,4.4033],[-74.1442,4.4058],[-74.1434,4.4072],[-74.1434,4.4088],[-74.1442,4.4109],[-74.144,4.4129],[-74.145,4.4151],[-74.1447,4.4187],[-74.1437,4.42],[-74.1448,4.4217],[-74.1446,4.4229],[-74.1446,4.426],[-74.144,4.4264],[-74.1434,4.4307],[-74.1439,4.4329],[-74.1427,4.4339],[-74.1433,4.4352],[-74.1436,4.4375],[-74.1432,4.4394],[-74.1436,4.4424],[-74.1444,4.4436],[-74.1446,4.4455],[-74.1442,4.4483],[-74.1421,4.452],[-74.1417,4.4547],[-74.1404,4.4573],[-74.1395,4.458],[-74.1384,4.4628],[-74.1376,4.4639],[-74.1384,4.4654],[-74.1381,4.4661],[-74.1368,4.4662],[-74.1362,4.4681],[-74.1353,4.4686],[-74.1331,4.4718],[-74.1325,4.4731],[-74.1313,4.4743],[-74.1299,4.4764],[-74.1283,4.4754],[-74.1273,4.4772],[-74.1255,4.4787],[-74.1247,4.4789],[-74.1233,4.4818],[-74.1226,4.4823],[-74.1213,4.4857],[-74.1216,4.4883],[-74.1205,4.4907],[-74.1207,4.4912],[-74.1223,4.4911],[-74.1231,4.4915],[-74.1214,4.4931],[-74.1221,4.4948],[-74.1216,4.4967],[-74.1228,4.4997],[-74.1245,4.5007],[-74.1256,4.5018],[-74.1269,4.5014],[-74.1284,4.5042],[-74.1279,4.5057],[-74.1268,4.5061],[-74.1267,4.5071],[-74.1273,4.5107],[-74.1267,4.5132],[-74.1258,4.5156],[-74.1259,4.5181],[-74.1256,4.5202],[-74.1276,4.5221],[-74.129,4.5244],[-74.1255,4.526],[-74.1248,4.5276],[-74.1232,4.5275],[-74.1231,4.5323],[-74.124,4.5345],[-74.1239,4.5363],[-74.1245,4.5371],[-74.125,4.5394],[-74.125,4.5416],[-74.1253,4.5427],[-74.1249,4.5441],[-74.1261,4.5448],[-74.1239,4.5445],[-74.1211,4.5454],[-74.119,4.5428],[-74.1173,4.5419],[-74.1163,4.5406],[-74.1126,4.5404],[-74.1124,4.5417],[-74.1101,4.54],[-74.1088,4.5394],[-74.1066,4.5395],[-74.1051,4.5376],[-74.1029,4.5365],[-74.1016,4.5372],[-74.1011,4.5365],[-74.1001,4.5369],[-74.0986,4.5349],[-74.0981,4.5349],[-74.0988,4.5372],[-74.0999,4.5379],[-74.1008,4.5404],[-74.1031,4.5439],[-74.1037,4.5455],[-74.1023,4.546],[-74.1005,4.5452],[-74.0986,4.543],[-74.0978,4.5414],[-74.0988,4.5404],[-74.0978,4.5387],[-74.097,4.5399],[-74.0958,4.538],[-74.0959,4.537],[-74.0952,4.5353],[-74.0953,4.5329],[-74.0945,4.5299],[-74.0944,4.5254],[-74.0936,4.5243],[-74.0941,4.5178],[-74.0945,4.5169],[-74.0896,4.5171],[-74.0908,4.5187],[-74.0911,4.5197],[-74.0819,4.5178],[-74.0828,4.5187],[-74.087,4.52],[-74.0872,4.5222],[-74.0844,4.5245],[-74.0844,4.5253],[-74.0835,4.5261],[-74.0828,4.5278],[-74.0802,4.5265],[-74.0803,4.5282],[-74.0818,4.5294],[-74.0817,4.5303],[-74.0805,4.5303],[-74.0798,4.5316],[-74.0791,4.5303],[-74.0784,4.5323],[-74.0766,4.532],[-74.079,4.5276],[-74.0774,4.5275],[-74.0745,4.5282],[-74.0739,4.5293],[-74.0723,4.5289],[-74.0703,4.5296],[-74.0686,4.5286],[-74.069,4.5266],[-74.07,4.5244],[-74.0697,4.5234],[-74.0707,4.5229],[-74.0714,4.5199],[-74.0718,4.5196],[-74.0719,4.5152],[-74.0704,4.5139],[-74.0705,4.5118],[-74.0698,4.5112],[-74.0689,4.5119],[-74.0685,4.51],[-74.0673,4.51],[-74.0647,4.5111],[-74.0642,4.5105],[-74.0614,4.5118],[-74.057,4.5087],[-74.056,4.5083],[-74.0566,4.508]]]}},{"type":"Feature","properties":{"localidad_id":"06"},"geometry":{"type":"Polygon","coordinates":[[[-74.1308,4.5934],[-74.1283,4.5927],[-74.1286,4.5866],[-74.1309,4.5859],[-74.1294,4.5801],[-74.1283,4.5802],[-74.1279,4.5786],[-74.1253,4.5696],[-74.1265,4.5672],[-74.1266,4.5664],[-74.1251,4.5637],[-74.1248,4.5622],[-74.1235,4.5594],[-74.1217,4.5567],[-74.1214,4.5554],[-74.1211,4.5454],[-74.1239,4.5445],[-74.1261,4.5448],[-74.1268,4.5455],[-74.1284,4.545],[-74.13,4.546],[-74.1294,4.5468],[-74.1269,4.5472],[-74.1262,4.5462],[-74.1254,4.5476],[-74.1267,4.5492],[-74.1275,4.5497],[-74.1288,4.5493],[-74.1302,4.5497],[-74.1317,4.5494],[-74.1324,4.5505],[-74.1319,4.5523],[-74.1338,4.5554],[-74.1332,4.5563],[-74.1347,4.5564],[-74.1352,4.5572],[-74.134,4.5575],[-74.1342,4.5587],[-74.1339,4.5608],[-74.1375,4.5624],[-74.1379,4.5634],[-74.1392,4.5637],[-74.1404,4.565],[-74.1405,4.5684],[-74.1417,4.569],[-74.1406,4.5692],[-74.1405,4.5705],[-74.142,4.5708],[-74.1418,4.5716],[-74.1431,4.5725],[-74.1429,4.574],[-74.142,4.5743],[-74.1408,4.5754],[-74.1422,4.5773],[-74.1428,4.5772],[-74.143,4.5758],[-74.1438,4.5751],[-74.1437,4.5743],[-74.1447,4.5732],[-74.1457,4.5736],[-74.1461,4.5746],[-74.1477,4.574],[-74.1477,4.5754],[-74.147,4.5763],[-74.1484,4.5781],[-74.1488,4.5765],[-74.15,4.5784],[-74.1494,4.5794],[-74.1497,4.5804],[-74.1489,4.5818],[-74.1475,4.5813],[-74.1472,4.5818],[-74.1486,4.5833],[-74.1507,4.5825],[-74.1515,4.5831],[-74.1506,4.5844],[-74.1521,4.5853],[-74.1513,4.5861],[-74.1504,4.5878],[-74.1514,4.589],[-74.1526,4.5887],[-74.1519,4.587],[-74.1531,4.5864],[-74.1533,4.5879],[-74.1546,4.5879],[-74.157,4.5887],[-74.1565,4.59],[-74.1547,4.5906],[-74.154,4.5913],[-74.1514,4.5914],[-74.1521,4.593],[-74.1532,4.5922],[-74.1541,4.5926],[-74.1539,4.5937],[-74.1528,4.5945],[-74.1523,4.5957],[-74.1517,4.5955],[-74.1463,4.5949],[-74.1426,4.5955],[-74.1404,4.5954],[-74.1378,4.5949],[-74.1308,4.5934]]]}},{"type":"Feature","properties":{"localidad_id":"07"},"geometry":{"type":"Polygon","coordinates":[[[-74.1848,4.645],[-74.1799,4.6345],[-74.1778,4.6297],[-74.1766,4.624],[-74.1777,4.6232],[-74.1772,4.6224],[-74.1797,4.6201],[-74.1792,4.6192],[-74.1801,4.6185],[-74.1814,4.6191],[-74.1852,4.6189],[-74.1851,4.6158],[-74.1834,4.6171],[-74.1824,4.6165],[-74.183,4.6154],[-74.1816,4.6148],[-74.1801,4.617],[-74.1794,4.6159],[-74.1802,4.6148],[-74.1819,4.6143],[-74.1812,4.613],[-74.178,4.611],[-74.1773,4.6098],[-74.1778,4.6084],[-74.1774,4.6064],[-74.1785,4.6061],[-74.178,4.6049],[-74.1766,4.6053],[-74.1762,4.6032],[-74.1777,4.6021],[-74.1773,4.6009],[-74.176,4.6012],[-74.1756,4.6034],[-74.1729,4.6032],[-74.1731,4.6024],[-74.1746,4.6012],[-74.174,4.6002],[-74.1718,4.6008],[-74.1701,4.6006],[-74.1699,4.6022],[-74.1691,4.6023],[-74.1688,4.604],[-74.1631,4.6063],[-74.1595,4.6055],[-74.1568,4.604],[-74.1564,4.603],[-74.1548,4.6025],[-74.1535,4.601],[-74.1525,4.6009],[-74.1522,4.5998],[-74.1607,4.5962],[-74.1633,4.5957],[-74.1679,4.5958],[-74.171,4.5961],[-74.1758,4.5968],[-74.1787,4.597],[-74.1819,4.5968],[-74.1838,4.5964],[-74.1874,4.5971],[-74.1944,4.5988],[-74.2041,4.6008],[-74.2043,4.5994],[-74.2134,4.6114],[-74.2159,4.6141],[-74.2171,4.6159],[-74.2181,4.616],[-74.2184,4.6179],[-74.2197,4.6175],[-74.2198,4.6187],[-74.2213,4.6186],[-74.221,4.6203],[-74.2223,4.6208],[-74.2213,4.6212],[-74.2207,4.6231],[-74.2226,4.6239],[-74.2236,4.6255],[-74.2222,4.6285],[-74.2224,4.6291],[-74.2209,4.6302],[-74.2177,4.6294],[-74.2158,4.6302],[-74.2158,4.6313],[-74.2173,4.634],[-74.2171,4.6356],[-74.2151,4.6363],[-74.2147,4.6373],[-74.2158,4.64],[-74.2184,4.6409],[-74.2204,4.642],[-74.2214,4.6435],[-74.2207,4.6443],[-74.2166,4.6445],[-74.2147,4.6437],[-74.2143,4.6411],[-74.2135,4.6404],[-74.2115,4.6406],[-74.207,4.6406],[-74.2057,4.6416],[-74.2055,4.6429],[-74.2071,4.6456],[-74.2068,4.6466],[-74.2058,4.6465],[-74.202,4.6439],[-74.2009,4.6438],[-74.2007,4.6445],[-74.2026,4.6453],[-74.2029,4.6465],[-74.2008,4.6487],[-74.199,4.6493],[-74.1969,4.6505],[-74.1958,4.6516],[-74.1943,4.6549],[-74.1922,4.655],[-74.1876,4.6518],[-74.1858,4.6517],[-74.1839,4.6528],[-74.1836,4.6521],[-74.1859,4.6477],[-74.1857,4.647],[-74.1848,4.645]]]}},{"type":"Feature","properties":{"localidad_id":"08"},"geometry":{"type":"Polygon","coordinates":[[[-74.1848,4.6471],[-74.1822,4.6492],[-74.1801,4.6526],[-74.1766,4.6548],[-74.1754,4.6545],[-74.1723,4.6571],[-74.1709,4.6572],[-74.1695,4.6563],[-74.1672,4.6567],[-74.1665,4.6596],[-74.1656,4.6597],[-74.164,4.6586],[-74.163,4.6597],[-74.163,4.6623],[-74.1623,4.6634],[-74.1603,4.6627],[-74.1585,4.6627],[-74.1571,4.6615],[-74.156,4.6627],[-74.1551,4.6631],[-74.1546,4.6643],[-74.1532,4.6639],[-74.1514,4.6642],[-74.1484,4.6627],[-74.1448,4.6612],[-74.1419,4.663],[-74.1409,4.6628],[-74.1393,4.6606],[-74.137,4.6587],[-74.1363,4.6575],[-74.1325,4.6498],[-74.1323,4.6489],[-74.131,4.649],[-74.1292,4.6485],[-74.1281,4.6473],[-74.1257,4.6452],[-74.1244,4.6417],[-74.1208,4.6391],[-74.1183,4.6374],[-74.1196,4.6359],[-74.1246,4.6236],[-74.1285,4.6107],[-74.1303,4.607],[-74.1373,4.5962],[-74.1378,4.5949],[-74.1404,4.5954],[-74.1426,4.5955],[-74.1463,4.5949],[-74.1517,4.5955],[-74.1523,4.5957],[-74.1512,4.5966],[-74.1501,4.5956],[-74.1497,4.596],[-74.152,4.5987],[-74.1522,4.5998],[-74.1525,4.6009],[-74.1535,4.601],[-74.1548,4.6025],[-74.1564,4.603],[-74.1568,4.604],[-74.1595,4.6055],[-74.1631,4.6063],[-74.1688,4.604],[-74.1691,4.6023],[-74.1699,4.6022],[-74.1701,4.6006],[-74.1718,4.6008],[-74.174,4.6002],[-74.1746,4.6012],[-74.1731,4.6024],[-74.1729,4.6032],[-74.1756,4.6034],[-74.176,4.6012],[-74.1773,4.6009],[-74.1777,4.6021],[-74.1762,4.6032],[-74.1766,4.6053],[-74.178,4.6049],[-74.1785,4.6061],[-74.1774,4.6064],[-74.1778,4.6084],[-74.1773,4.6098],[-74.178,4.611],[-74.1812,4.613],[-74.1819,4.6143],[-74.1802,4.6148],[-74.1794,4.6159],[-74.1801,4.617],[-74.1816,4.6148],[-74.183,4.6154],[-74.1824,4.6165],[-74.1834,4.6171],[-74.1851,4.6158],[-74.1852,4.6189],[-74.1814,4.6191],[-74.1801,4.6185],[-74.1792,4.6192],[-74.1797,4.6201],[-74.1772,4.6224],[-74.1777,4.6232],[-74.1766,4.624],[-74.1778,4.6297],[-74.1799,4.6345],[-74.1848,4.645],[-74.1857,4.647],[-74.1848,4.6471]]]}},{"type":"Feature","properties":{"localidad_id":"09"},"geometry":{"type":"Polygon","coordinates":[[[-74.1585,4.6636],[-74.1611,4.6647],[-74.1604,4.6666],[-74.1607,4.6671],[-74.1641,4.6673],[-74.1702,4.6693],[-74.1705,4.671],[-74.1693,4.6721],[-74.1664,4.6733],[-74.1656,4.673],[-74.165,4.6713],[-74.1641,4.6713],[-74.1624,4.6753],[-74.1613,4.6761],[-74.1587,4.6769],[-74.1569,4.6784],[-74.1571,4.6798],[-74.1584,4.682],[-74.1596,4.683],[-74.1608,4.6825],[-74.1622,4.6811],[-74.162,4.6802],[-74.1602,4.6788],[-74.1609,4.6777],[-74.1646,4.6757],[-74.1653,4.6758],[-74.1659,4.6782],[-74.1672,4.6776],[-74.1692,4.6755],[-74.1701,4.6758],[-74.1706,4.6772],[-74.1711,4.677],[-74.1711,4.6752],[-74.1715,4.6743],[-74.1749,4.6766],[-74.175,4.6774],[-74.1743,4.6796],[-74.1739,4.6823],[-74.1711,4.6841],[-74.1701,4.6856],[-74.1677,4.6876],[-74.1677,4.6883],[-74.1695,4.6894],[-74.1705,4.6906],[-74.1713,4.6931],[-74.1722,4.694],[-74.1724,4.6961],[-74.1693,4.6993],[-74.1694,4.701],[-74.1738,4.7006],[-74.1753,4.7009],[-74.1768,4.7018],[-74.1768,4.703],[-74.1706,4.7047],[-74.1683,4.7044],[-74.1647,4.7057],[-74.1619,4.7059],[-74.1622,4.7073],[-74.1598,4.7083],[-74.1561,4.708],[-74.1551,4.7092],[-74.1548,4.7127],[-74.1556,4.7159],[-74.1555,4.718],[-74.1548,4.7176],[-74.1451,4.7104],[-74.1229,4.6936],[-74.1204,4.6922],[-74.1184,4.6887],[-74.1215,4.6867],[-74.1241,4.6855],[-74.1247,4.6848],[-74.1225,4.683],[-74.1209,4.681],[-74.1177,4.6759],[-74.1034,4.6535],[-74.1078,4.6479],[-74.1104,4.6451],[-74.115,4.6405],[-74.1183,4.6374],[-74.1208,4.6391],[-74.1244,4.6417],[-74.1257,4.6452],[-74.1281,4.6473],[-74.1292,4.6485],[-74.131,4.649],[-74.1323,4.6489],[-74.1325,4.6498],[-74.1363,4.6575],[-74.137,4.6587],[-74.1393,4.6606],[-74.1409,4.6628],[-74.1419,4.663],[-74.1448,4.6612],[-74.1484,4.6627],[-74.1514,4.6642],[-74.1532,4.6639],[-74.1546,4.6643],[-74.1551,4.6631],[-74.156,4.6627],[-74.1571,4.6615],[-74.1585,4.6627],[-74.1585,4.6636]]]}},{"type":"Feature","properties":{"localidad_id":"10"},"geometry":{"type":"Polygon","coordinates":[[[-74.1563,4.7172],[-74.1579,4.7187],[-74.1603,4.7202],[-74.1605,4.7215],[-74.1598,4.7238],[-74.1579,4.7255],[-74.1569,4.7255],[-74.1575,4.7242],[-74.1558,4.7233],[-74.1521,4.7228],[-74.1507,4.7229],[-74.1492,4.7255],[-74.1435,4.7286],[-74.1403,4.7295],[-74.1381,4.7306],[-74.1371,4.7307],[-74.1362,4.7284],[-74.135,4.7283],[-74.1324,4.7293],[-74.1314,4.7307],[-74.1295,4.7303],[-74.1296,4.7284],[-74.1286,4.7267],[-74.126,4.7297],[-74.1275,4.7322],[-74.1282,4.734],[-74.1283,4.736],[-74.1267,4.7367],[-74.1274,4.7373],[-74.1274,4.7388],[-74.1265,4.7398],[-74.1254,4.7401],[-74.1206,4.7393],[-74.1206,4.7379],[-74.119,4.7364],[-74.1169,4.736],[-74.116,4.735],[-74.1146,4.7347],[-74.1141,4.7323],[-74.1133,4.7318],[-74.1113,4.7297],[-74.1097,4.7291],[-74.1089,4.7276],[-74.1066,4.7259],[-74.1042,4.7259],[-74.1041,4.724],[-74.1019,4.722],[-74.1005,4.7214],[-74.1001,4.7183],[-74.0989,4.7175],[-74.0967,4.7174],[-74.0954,4.716],[-74.0945,4.714],[-74.0935,4.7132],[-74.0934,4.7114],[-74.0923,4.7104],[-74.091,4.7107],[-74.0904,4.7085],[-74.0897,4.7085],[-74.0896,4.7069],[-74.0882,4.7059],[-74.0879,4.7045],[-74.0885,4.7009],[-74.0884,4.6985],[-74.0859,4.6973],[-74.0847,4.6944],[-74.0809,4.6931],[-74.0803,4.6908],[-74.0795,4.6895],[-74.0788,4.6875],[-74.0773,4.6854],[-74.0843,4.6798],[-74.0852,4.6789],[-74.0894,4.6717],[-74.0937,4.6661],[-74.1034,4.6535],[-74.1177,4.6759],[-74.1209,4.681],[-74.1225,4.683],[-74.1247,4.6848],[-74.1241,4.6855],[-74.1215,4.6867],[-74.1184,4.6887],[-74.1204,4.6922],[-74.1229,4.6936],[-74.1451,4.7104],[-74.1548,4.7176],[-74.1555,4.718],[-74.1563,4.7172]]]}},{"type":"Feature","properties":{"localidad_id":"11"},"geometry":{"type":"Polygon","coordinates":[[[-74.035,4.8231],[-74.0351,4.8205],[-74.0421,4.777],[-74.0467,4.751],[-74.0468,4.7488],[-74.0572,4.6868],[-74.0666,4.6894],[-74.0691,4.6897],[-74.0712,4.6894],[-74.0739,4.6881],[-74.0773,4.6854],[-74.0788,4.6875],[-74.0795,4.6895],[-74.0803,4.6908],[-74.0809,4.6931],[-74.0847,4.6944],[-74.0859,4.6973],[-74.0884,4.6985],[-74.0885,4.7009],[-74.0879,4.7045],[-74.0882,4.7059],[-74.0896,4.7069],[-74.0897,4.7085],[-74.0904,4.7085],[-74.091,4.7107],[-74.0923,4.7104],[-74.0934,4.7114],[-74.0935,4.7132],[-74.0945,4.714],[-74.0954,4.716],[-74.0967,4.7174],[-74.0989,4.7175],[-74.1001,4.7183],[-74.1005,4.7214],[-74.1019,4.722],[-74.1041,4.724],[-74.1042,4.7259],[-74.1066,4.7259],[-74.1089,4.7276],[-74.1097,4.7291],[-74.1113,4.7297],[-74.1133,4.7318],[-74.1141,4.7323],[-74.1146,4.7347],[-74.116,4.735],[-74.1169,4.736],[-74.119,4.7364],[-74.1206,4.7379],[-74.1206,4.7393],[-74.1254,4.7401],[-74.1265,4.7398],[-74.1274,4.7388],[-74.1274,4.7373],[-74.1288,4.7373],[-74.1297,4.739],[-74.1317,4.7397],[-74.1319,4.7411],[-74.1307,4.7431],[-74.1301,4.7459],[-74.1291,4.7463],[-74.1274,4.7462],[-74.1256,4.7471],[-74.1257,4.749],[-74.1261,4.7495],[-74.1276,4.7493],[-74.1273,4.7506],[-74.1261,4.7507],[-74.1243,4.75],[-74.1234,4.7474],[-74.1225,4.7478],[-74.1242,4.7522],[-74.1254,4.7535],[-74.1252,4.754],[-74.1214,4.7541],[-74.1202,4.7544],[-74.1212,4.7598],[-74.1201,4.7612],[-74.1168,4.7618],[-74.1154,4.7664],[-74.1157,4.768],[-74.1171,4.7667],[-74.1183,4.7668],[-74.1181,4.7675],[-74.1158,4.7693],[-74.1147,4.7706],[-74.1143,4.772],[-74.1161,4.772],[-74.1165,4.7724],[-74.1151,4.7737],[-74.1139,4.7787],[-74.1168,4.7774],[-74.1169,4.7782],[-74.1151,4.7791],[-74.1143,4.7801],[-74.1147,4.7809],[-74.1171,4.7803],[-74.117,4.7812],[-74.1144,4.7822],[-74.115,4.7854],[-74.1143,4.7856],[-74.1123,4.7845],[-74.1121,4.7853],[-74.1144,4.7869],[-74.1129,4.7902],[-74.1104,4.7906],[-74.1101,4.7898],[-74.1124,4.7894],[-74.1116,4.7872],[-74.108,4.7888],[-74.1076,4.792],[-74.1063,4.7951],[-74.1052,4.7969],[-74.1039,4.7975],[-74.1028,4.7972],[-74.1037,4.7955],[-74.1028,4.7952],[-74.102,4.7964],[-74.1013,4.7986],[-74.1007,4.7991],[-74.0979,4.7986],[-74.0961,4.7992],[-74.0959,4.7956],[-74.0953,4.7939],[-74.0939,4.7908],[-74.0899,4.7935],[-74.0875,4.7956],[-74.0873,4.7968],[-74.0897,4.7962],[-74.0916,4.7967],[-74.0901,4.7978],[-74.0893,4.7976],[-74.0883,4.7991],[-74.089,4.8014],[-74.0871,4.8017],[-74.0876,4.8025],[-74.0888,4.8029],[-74.0819,4.8072],[-74.0805,4.8079],[-74.0798,4.8094],[-74.08,4.81],[-74.0824,4.8109],[-74.0847,4.8121],[-74.0849,4.813],[-74.0829,4.8136],[-74.0832,4.8143],[-74.086,4.8151],[-74.0871,4.816],[-74.0868,4.8177],[-74.0866,4.821],[-74.085,4.8211],[-74.0834,4.8221],[-74.0823,4.8195],[-74.0828,4.818],[-74.0825,4.8169],[-74.0816,4.8167],[-74.081,4.8184],[-74.079,4.8211],[-74.0802,4.825],[-74.0825,4.8273],[-74.0843,4.8297],[-74.0867,4.8318],[-74.0866,4.8322],[-74.0838,4.8334],[-74.0805,4.8353],[-74.0768,4.8367],[-74.0745,4.8367],[-74.0732,4.8359],[-74.0717,4.8342],[-74.0708,4.8312],[-74.0707,4.8284],[-74.0687,4.8286],[-74.067,4.8281],[-74.0673,4.8301],[-74.0674,4.8327],[-74.0661,4.8354],[-74.0652,4.8354],[-74.0648,4.8342],[-74.065,4.8322],[-74.0647,4.8304],[-74.0638,4.8317],[-74.0642,4.8336],[-74.063,4.8356],[-74.0626,4.8352],[-74.0628,4.8326],[-74.0609,4.8277],[-74.0602,4.8286],[-74.0578,4.8291],[-74.056,4.8289],[-74.0543,4.8306],[-74.0536,4.8327],[-74.0528,4.8331],[-74.0503,4.8305],[-74.0493,4.8305],[-74.0491,4.8312],[-74.0501,4.8349],[-74.0493,4.8348],[-74.0476,4.8306],[-74.0466,4.8301],[-74.0455,4.8305],[-74.0441,4.833],[-74.0412,4.8289],[-74.0408,4.8265],[-74.0345,4.8255],[-74.035,4.8231]]]}},{"type":"Feature","properties":{"localidad_id":"12"},"geometry":{"type":"Polygon","coordinates":[[[-74.0625,4.6559],[-74.0641,4.6524],[-74.0646,4.6496],[-74.0776,4.6519],[-74.0822,4.6528],[-74.0845,4.6539],[-74.0867,4.6567],[-74.0929,4.6654],[-74.0937,4.6661],[-74.0894,4.6717],[-74.0852,4.6789],[-74.0843,4.6798],[-74.0773,4.6854],[-74.0739,4.6881],[-74.0712,4.6894],[-74.0691,4.6897],[-74.0666,4.6894],[-74.0572,4.6868],[-74.0625,4.6559]]]}},{"type":"Feature","properties":{"localidad_id":"13"},"geometry":{"type":"Polygon","coordinates":[[[-74.0929,4.6654],[-74.0867,4.6567],[-74.0845,4.6539],[-74.0822,4.6528],[-74.0776,4.6519],[-74.0646,4.6496],[-74.0662,4.6415],[-74.0684,4.6288],[-74.0697,4.6216],[-74.0703,4.6202],[-74.0728,4.6154],[-74.0788,4.6239],[-74.0832,4.6247],[-74.0915,4.6257],[-74.1068,4.6415],[-74.1104,4.6451],[-74.1078,4.6479],[-74.1034,4.6535],[-74.0937,4.6661],[-74.0929,4.6654]]]}},{"type":"Feature","properties":{"localidad_id":"14"},"geometry":{"type":"Polygon","coordinates":[[[-74.0738,4.6134],[-74.0767,4.6081],[-74.0811,4.602],[-74.0828,4.5996],[-74.0853,4.5962],[-74.089,4.5918],[-74.0907,4.5925],[-74.0991,4.5949],[-74.1032,4.5947],[-74.1045,4.5962],[-74.1071,4.5982],[-74.1021,4.602],[-74.0991,4.605],[-74.0832,4.6247],[-74.0788,4.6239],[-74.0728,4.6154],[-74.0738,4.6134]]]}},{"type":"Feature","properties":{"localidad_id":"15"},"geometry":{"type":"Polygon","coordinates":[[[-74.1264,4.5933],[-74.1209,4.5938],[-74.1146,4.5954],[-74.1091,4.5978],[-74.1071,4.5982],[-74.1045,4.5962],[-74.1032,4.5947],[-74.0991,4.5949],[-74.0907,4.5925],[-74.089,4.5918],[-74.0849,4.5893],[-74.0904,4.5814],[-74.0946,4.5758],[-74.1027,4.5814],[-74.1089,4.5892],[-74.1101,4.5887],[-74.1151,4.5883],[-74.1169,4.5884],[-74.1245,4.59],[-74.1252,4.5903],[-74.1283,4.5927],[-74.1308,4.5934],[-74.1264,4.5933]]]}},{"type":"Feature","properties":{"localidad_id":"16"},"geometry":{"type":"Polygon","coordinates":[[[-74.115,4.6405],[-74.1104,4.6451],[-74.1068,4.6415],[-74.0915,4.6257],[-74.0832,4.6247],[-74.0991,4.605],[-74.1021,4.602],[-74.1071,4.5982],[-74.1091,4.5978],[-74.1146,4.5954],[-74.1209,4.5938],[-74.1264,4.5933],[-74.1308,4.5934],[-74.1378,4.5949],[-74.1373,4.5962],[-74.1303,4.607],[-74.1285,4.6107],[-74.1246,4.6236],[-74.1196,4.6359],[-74.1183,4.6374],[-74.115,4.6405]]]}},{"type":"Feature","properties":{"localidad_id":"17"},"geometry":{"type":"Polygon","coordinates":[[[-74.0652,4.6034],[-74.0641,4.603],[-74.0623,4.6033],[-74.0594,4.6019],[-74.0593,4.6013],[-74.0613,4.6001],[-74.0622,4.6002],[-74.0635,4.5992],[-74.0643,4.5997],[-74.0651,4.5989],[-74.0647,4.5975],[-74.0661,4.5975],[-74.0667,4.5969],[-74.0673,4.5949],[-74.0683,4.5936],[-74.0679,4.5921],[-74.0684,4.5899],[-74.0706,4.5915],[-74.0712,4.59],[-74.0724,4.5891],[-74.074,4.5898],[-74.0758,4.5898],[-74.078,4.5911],[-74.0793,4.591],[-74.0805,4.5916],[-74.0814,4.5945],[-74.077,4.6017],[-74.0767,4.6021],[-74.0748,4.6022],[-74.0727,4.601],[-74.0711,4.6006],[-74.0695,4.6008],[-74.0681,4.6014],[-74.0671,4.6028],[-74.0652,4.6034]]]}},{"type":"Feature","properties":{"localidad_id":"18"},"geometry":{"type":"Polygon","coordinates":[[[-74.1252,4.5903],[-74.1245,4.59],[-74.1169,4.5884],[-74.1151,4.5883],[-74.1101,4.5887],[-74.1089,4.5892],[-74.1027,4.5814],[-74.0946,4.5758],[-74.1025,4.5668],[-74.1043,4.5649],[-74.1063,4.5639],[-74.1044,4.5615],[-74.1035,4.5599],[-74.1018,4.5559],[-74.1025,4.5513],[-74.1029,4.5499],[-74.1028,4.5485],[-74.1032,4.5469],[-74.1023,4.546],[-74.1037,4.5455],[-74.1031,4.5439],[-74.1008,4.5404],[-74.0999,4.5379],[-74.0988,4.5372],[-74.0981,4.5349],[-74.0986,4.5349],[-74.1001,4.5369],[-74.1011,4.5365],[-74.1016,4.5372],[-74.1029,4.5365],[-74.1051,4.5376],[-74.1066,4.5395],[-74.1088,4.5394],[-74.1101,4.54],[-74.1124,4.5417],[-74.1126,4.5404],[-74.1163,4.5406],[-74.1173,4.5419],[-74.119,4.5428],[-74.1211,4.5454],[-74.1214,4.5554],[-74.1217,4.5567],[-74.1235,4.5594],[-74.1248,4.5622],[-74.1251,4.5637],[-74.1266,4.5664],[-74.1265,4.5672],[-74.1253,4.5696],[-74.1279,4.5786],[-74.1283,4.5802],[-74.1294,4.5801],[-74.1309,4.5859],[-74.1286,4.5866],[-74.1283,4.5927],[-74.1252,4.5903]]]}},{"type":"Feature","properties":{"localidad_id":"19"},"geometry":{"type":"Polygon","coordinates":[[[-74.2114,4.3882],[-74.2115,4.3909],[-74.2131,4.3955],[-74.213,4.3962],[-74.2104,4.3991],[-74.209,4.403],[-74.2078,4.4053],[-74.2082,4.4079],[-74.2059,4.4123],[-74.2041,4.4144],[-74.2038,4.4167],[-74.204,4.4183],[-74.2034,4.4194],[-74.2006,4.422],[-74.1988,4.4264],[-74.1982,4.4267],[-74.1947,4.4264],[-74.1942,4.4268],[-74.194,4.4299],[-74.195,4.4333],[-74.1947,4.4348],[-74.1934,4.4368],[-74.192,4.4409],[-74.1909,4.4427],[-74.191,4.4455],[-74.1905,4.4472],[-74.1874,4.4501],[-74.1862,4.4527],[-74.1869,4.4545],[-74.1865,4.4585],[-74.1852,4.462],[-74.1835,4.4647],[-74.1831,4.4668],[-74.1836,4.4687],[-74.1829,4.4716],[-74.1836,4.4729],[-74.1832,4.475],[-74.1823,4.4755],[-74.1823,4.4782],[-74.1826,4.48],[-74.1816,4.482],[-74.1811,4.482],[-74.1794,4.4847],[-74.1783,4.4857],[-74.1783,4.4876],[-74.179,4.4886],[-74.1793,4.494],[-74.1788,4.4965],[-74.1801,4.4995],[-74.1815,4.5041],[-74.1783,4.5059],[-74.175,4.5068],[-74.1734,4.508],[-74.1749,4.5103],[-74.1756,4.5121],[-74.1777,4.513],[-74.1792,4.513],[-74.1812,4.5123],[-74.1822,4.513],[-74.1829,4.5151],[-74.1828,4.5166],[-74.1833,4.5173],[-74.1831,4.5187],[-74.1837,4.5215],[-74.1831,4.5263],[-74.1832,4.5275],[-74.1881,4.533],[-74.1835,4.5359],[-74.1795,4.5365],[-74.1774,4.5374],[-74.1767,4.5383],[-74.1742,4.5397],[-74.1734,4.5405],[-74.1733,4.5421],[-74.1741,4.5437],[-74.1752,4.5441],[-74.1764,4.5458],[-74.1745,4.5482],[-74.1739,4.5495],[-74.1738,4.5516],[-74.1747,4.5532],[-74.1769,4.5535],[-74.1765,4.5564],[-74.177,4.5581],[-74.1764,4.5589],[-74.1764,4.5605],[-74.1774,4.5622],[-74.1779,4.5651],[-74.1778,4.5681],[-74.1785,4.5702],[-74.1757,4.572],[-74.1753,4.5754],[-74.1778,4.5777],[-74.1794,4.577],[-74.1797,4.5784],[-74.1809,4.5879],[-74.1827,4.5916],[-74.1838,4.5964],[-74.1819,4.5968],[-74.1787,4.597],[-74.1758,4.5968],[-74.171,4.5961],[-74.1679,4.5958],[-74.1633,4.5957],[-74.1607,4.5962],[-74.1522,4.5998],[-74.152,4.5987],[-74.1497,4.596],[-74.1501,4.5956],[-74.1512,4.5966],[-74.1523,4.5957],[-74.1528,4.5945],[-74.1539,4.5937],[-74.1541,4.5926],[-74.1532,4.5922],[-74.1521,4.593],[-74.1514,4.5914],[-74.154,4.5913],[-74.1547,4.5906],[-74.1565,4.59],[-74.157,4.5887],[-74.1546,4.5879],[-74.1533,4.5879],[-74.1531,4.5864],[-74.1519,4.587],[-74.1526,4.5887],[-74.1514,4.589],[-74.1504,4.5878],[-74.1513,4.5861],[-74.1521,4.5853],[-74.1506,4.5844],[-74.1515,4.5831],[-74.1507,4.5825],[-74.1486,4.5833],[-74.1472,4.5818],[-74.1475,4.5813],[-74.1489,4.5818],[-74.1497,4.5804],[-74.1494,4.5794],[-74.15,4.5784],[-74.1488,4.5765],[-74.1484,4.5781],[-74.147,4.5763],[-74.1477,4.5754],[-74.1477,4.574],[-74.1461,4.5746],[-74.1457,4.5736],[-74.1447,4.5732],[-74.1437,4.5743],[-74.1438,4.5751],[-74.143,4.5758],[-74.1428,4.5772],[-74.1422,4.5773],[-74.1408,4.5754],[-74.142,4.5743],[-74.1429,4.574],[-74.1431,4.5725],[-74.1418,4.5716],[-74.142,4.5708],[-74.1405,4.5705],[-74.1406,4.5692],[-74.1417,4.569],[-74.1405,4.5684],[-74.1404,4.565],[-74.1392,4.5637],[-74.1379,4.5634],[-74.1375,4.5624],[-74.1339,4.5608],[-74.1342,4.5587],[-74.134,4.5575],[-74.1352,4.5572],[-74.1347,4.5564],[-74.1332,4.5563],[-74.1338,4.5554],[-74.1319,4.5523],[-74.1324,4.5505],[-74.1317,4.5494],[-74.1302,4.5497],[-74.1288,4.5493],[-74.1275,4.5497],[-74.1267,4.5492],[-74.1254,4.5476],[-74.1262,4.5462],[-74.1269,4.5472],[-74.1294,4.5468],[-74.13,4.546],[-74.1284,4.545],[-74.1268,4.5455],[-74.1261,4.5448],[-74.1249,4.5441],[-74.1253,4.5427],[-74.125,4.5416],[-74.125,4.5394],[-74.1245,4.5371],[-74.1239,4.5363],[-74.124,4.5345],[-74.1231,4.5323],[-74.1232,4.5275],[-74.1248,4.5276],[-74.1255,4.526],[-74.129,4.5244],[-74.1276,4.5221],[-74.1256,4.5202],[-74.1259,4.5181],[-74.1258,4.5156],[-74.1267,4.5132],[-74.1273,4.5107],[-74.1267,4.5071],[-74.1268,4.5061],[-74.1279,4.5057],[-74.1284,4.5042],[-74.1269,4.5014],[-74.1256,4.5018],[-74.1245,4.5007],[-74.1228,4.4997],[-74.1216,4.4967],[-74.1221,4.4948],[-74.1214,4.4931],[-74.1231,4.4915],[-74.1223,4.4911],[-74.1207,4.4912],[-74.1205,4.4907],[-74.1216,4.4883],[-74.1213,4.4857],[-74.1226,4.4823],[-74.1233,4.4818],[-74.1247,4.4789],[-74.1255,4.4787],[-74.1273,4.4772],[-74.1283,4.4754],[-74.1299,4.4764],[-74.1313,4.4743],[-74.1325,4.4731],[-74.1331,4.4718],[-74.1353,4.4686],[-74.1362,4.4681],[-74.1368,4.4662],[-74.1381,4.4661],[-74.1384,4.4654],[-74.1376,4.4639],[-74.1384,4.4628],[-74.1395,4.458],[-74.1404,4.4573],[-74.1417,4.4547],[-74.1421,4.452],[-74.1442,4.4483],[-74.1446,4.4455],[-74.1444,4.4436],[-74.1436,4.4424],[-74.1432,4.4394],[-74.1436,4.4375],[-74.1433,4.4352],[-74.1427,4.4339],[-74.1439,4.4329],[-74.1434,4.4307],[-74.144,4.4264],[-74.1446,4.426],[-74.1446,4.4229],[-74.1448,4.4217],[-74.1437,4.42],[-74.1447,4.4187],[-74.145,4.4151],[-74.144,4.4129],[-74.1442,4.4109],[-74.1434,4.4088],[-74.1434,4.4072],[-74.1442,4.4058],[-74.1443,4.4033],[-74.1438,4.4003],[-74.1432,4.3992],[-74.1433,4.3976],[-74.1429,4.3953],[-74.1414,4.3934],[-74.1413,4.3916],[-74.1424,4.3905],[-74.1427,4.3878],[-74.1445,4.3882],[-74.1464,4.3879],[-74.148,4.3869],[-74.1493,4.3878],[-74.1512,4.3872],[-74.1529,4.3885],[-74.1554,4.3893],[-74.1568,4.3893],[-74.1586,4.3902],[-74.1613,4.3892],[-74.1627,4.3896],[-74.164,4.3877],[-74.1655,4.387],[-74.1666,4.3856],[-74.1678,4.3852],[-74.1696,4.3859],[-74.171,4.386],[-74.1738,4.3872],[-74.1757,4.3884],[-74.1773,4.3886],[-74.1798,4.3858],[-74.1802,4.3839],[-74.1815,4.3837],[-74.1842,4.385],[-74.1856,4.3849],[-74.1918,4.386],[-74.1932,4.3867],[-74.1953,4.3871],[-74.1995,4.3871],[-74.2029,4.3861],[-74.2041,4.3863],[-74.2109,4.3869],[-74.2114,4.3882]]]}},{"type":"Feature","properties":{"localidad_id":"20"},"geometry":{"type":"Polygon","coordinates":[[[-74.2055,4.2729],[-74.2049,4.2761],[-74.2042,4.2783],[-74.2029,4.2804],[-74.202,4.2828],[-74.2007,4.2849],[-74.197,4.2884],[-74.195,4.2901],[-74.192,4.2874],[-74.1907,4.2866],[-74.1891,4.2848],[-74.1882,4.2829],[-74.1854,4.2819],[-74.1835,4.2817],[-74.1781,4.2818],[-74.1761,4.282],[-74.1725,4.2827],[-74.1699,4.2823],[-74.1651,4.2831],[-74.1627,4.2831],[-74.1605,4.2837],[-74.158,4.2853],[-74.1573,4.2862],[-74.1535,4.2897],[-74.1518,4.2916],[-74.1465,4.2966],[-74.1434,4.2998],[-74.1406,4.3021],[-74.1375,4.3042],[-74.1339,4.3058],[-74.1324,4.3061],[-74.13,4.3057],[-74.1286,4.3058],[-74.1273,4.3065],[-74.1244,4.3067],[-74.1268,4.3052],[-74.1293,4.3],[-74.1302,4.2972],[-74.132,4.2936],[-74.1324,4.2917],[-74.1339,4.2882],[-74.1373,4.2834],[-74.1392,4.2815],[-74.1409,4.2793],[-74.1418,4.2787],[-74.1433,4.2722],[-74.1438,4.2694],[-74.146,4.2662],[-74.1471,4.2635],[-74.1481,4.2619],[-74.15,4.2597],[-74.1524,4.2557],[-74.1526,4.2547],[-74.1515,4.2511],[-74.149,4.2482],[-74.146,4.2458],[-74.1455,4.245],[-74.1453,4.2404],[-74.1439,4.2368],[-74.1429,4.2352],[-74.1427,4.2337],[-74.1415,4.2323],[-74.1381,4.2307],[-74.1365,4.2295],[-74.1361,4.2287],[-74.1364,4.2268],[-74.1379,4.2245],[-74.1377,4.2227],[-74.1381,4.2218],[-74.1384,4.219],[-74.1393,4.2175],[-74.1385,4.2165],[-74.1389,4.2148],[-74.1377,4.2122],[-74.1364,4.2108],[-74.137,4.2091],[-74.1365,4.2082],[-74.1359,4.2053],[-74.1354,4.2045],[-74.1335,4.2047],[-74.1335,4.2028],[-74.1326,4.2001],[-74.131,4.1977],[-74.1279,4.1957],[-74.1261,4.1963],[-74.1245,4.1954],[-74.1244,4.1945],[-74.1252,4.1928],[-74.1258,4.1871],[-74.1234,4.1841],[-74.1235,4.1823],[-74.1231,4.1815],[-74.1215,4.1805],[-74.1196,4.1806],[-74.1174,4.1823],[-74.1157,4.1826],[-74.1137,4.1822],[-74.111,4.1821],[-74.1105,4.1813],[-74.1112,4.1786],[-74.1102,4.177],[-74.1098,4.1752],[-74.1097,4.1723],[-74.1092,4.1695],[-74.111,4.1665],[-74.1127,4.1642],[-74.1124,4.1615],[-74.1136,4.16],[-74.1139,4.1582],[-74.1148,4.1566],[-74.1145,4.1548],[-74.115,4.153],[-74.1152,4.1481],[-74.1144,4.1427],[-74.1148,4.1419],[-74.1169,4.1399],[-74.1169,4.139],[-74.1178,4.1372],[-74.1178,4.1363],[-74.1163,4.135],[-74.1154,4.135],[-74.1147,4.1341],[-74.1112,4.1332],[-74.1094,4.1324],[-74.1087,4.1314],[-74.1079,4.1314],[-74.1034,4.1282],[-74.1027,4.1269],[-74.0994,4.1236],[-74.0986,4.1235],[-74.0959,4.1223],[-74.095,4.1222],[-74.0933,4.123],[-74.0897,4.1226],[-74.0901,4.1217],[-74.0918,4.1212],[-74.0924,4.1198],[-74.0948,4.1183],[-74.096,4.1169],[-74.0965,4.1152],[-74.0981,4.1128],[-74.0984,4.1101],[-74.0989,4.1085],[-74.1008,4.1064],[-74.1017,4.1064],[-74.1043,4.1055],[-74.1059,4.1046],[-74.1073,4.1029],[-74.1081,4.1025],[-74.1127,4.1016],[-74.1163,4.1005],[-74.1182,4.1003],[-74.1195,4.098],[-74.1206,4.0974],[-74.1217,4.098],[-74.122,4.0966],[-74.1271,4.0948],[-74.1297,4.0918],[-74.1305,4.0882],[-74.1305,4.0864],[-74.1319,4.0829],[-74.1326,4.0793],[-74.1315,4.0767],[-74.1297,4.0745],[-74.1287,4.0729],[-74.1279,4.0729],[-74.1275,4.07],[-74.1261,4.0692],[-74.1257,4.0681],[-74.1256,4.0635],[-74.1249,4.0608],[-74.1247,4.0571],[-74.1253,4.0553],[-74.1264,4.0546],[-74.1262,4.0517],[-74.1281,4.0453],[-74.1291,4.0427],[-74.1308,4.0394],[-74.132,4.0379],[-74.132,4.0369],[-74.1338,4.0336],[-74.135,4.0322],[-74.1368,4.0316],[-74.1379,4.0301],[-74.1379,4.0274],[-74.1415,4.0231],[-74.1431,4.0207],[-74.1458,4.0198],[-74.1468,4.0183],[-74.1466,4.0165],[-74.1477,4.0117],[-74.149,4.0102],[-74.1495,4.0065],[-74.1503,4.0048],[-74.1515,4.0051],[-74.1526,4.0065],[-74.1531,4.0084],[-74.153,4.0121],[-74.1541,4.0137],[-74.1554,4.0149],[-74.1573,4.0153],[-74.1589,4.0177],[-74.1607,4.0171],[-74.1627,4.017],[-74.1654,4.0162],[-74.1692,4.0153],[-74.1737,4.0163],[-74.1755,4.016],[-74.1769,4.0147],[-74.1792,4.0114],[-74.1813,4.0094],[-74.1829,4.0083],[-74.1855,4.0096],[-74.1878,4.0112],[-74.1906,4.0121],[-74.1948,4.0158],[-74.1978,4.0154],[-74.2012,4.0135],[-74.2038,4.0143],[-74.2057,4.0139],[-74.2088,4.0118],[-74.2097,4.0115],[-74.2125,4.0132],[-74.2146,4.0124],[-74.2157,4.0109],[-74.2175,4.0103],[-74.2178,4.0075],[-74.2197,4.0055],[-74.2213,4.0032],[-74.225,3.9988],[-74.2272,3.9969],[-74.229,3.9946],[-74.2298,3.9929],[-74.2305,3.9881],[-74.233,3.9829],[-74.2333,3.981],[-74.2329,3.9791],[-74.2332,3.9782],[-74.2353,3.9761],[-74.2377,3.9732],[-74.2389,3.9707],[-74.2408,3.9644],[-74.2422,3.9617],[-74.2442,3.9554],[-74.2458,3.9532],[-74.2472,3.9519],[-74.2512,3.9497],[-74.2529,3.9494],[-74.2586,3.9496],[-74.2601,3.9487],[-74.2595,3.9479],[-74.2539,3.947],[-74.253,3.9455],[-74.2536,3.9448],[-74.2554,3.9442],[-74.2577,3.9427],[-74.2578,3.9408],[-74.2571,3.938],[-74.256,3.9305],[-74.2565,3.9287],[-74.2574,3.9284],[-74.2648,3.9294],[-74.2694,3.9277],[-74.2727,3.9259],[-74.2737,3.9244],[-74.2747,3.9209],[-74.2751,3.9171],[-74.2752,3.9143],[-74.2761,3.9106],[-74.2782,3.9073],[-74.2799,3.905],[-74.2813,3.9015],[-74.2839,3.8988],[-74.286,3.8956],[-74.2866,3.8938],[-74.2888,3.8923],[-74.2914,3.8892],[-74.2924,3.8874],[-74.2938,3.8861],[-74.2962,3.8845],[-74.2979,3.8811],[-74.2988,3.8811],[-74.3008,3.8832],[-74.3016,3.8836],[-74.3035,3.8833],[-74.3068,3.8851],[-74.3087,3.8884],[-74.3097,3.8885],[-74.3115,3.8863],[-74.3135,3.8829],[-74.3157,3.8812],[-74.3165,3.8794],[-74.3156,3.8765],[-74.3136,3.8741],[-74.3141,3.8731],[-74.3135,3.8713],[-74.3146,3.8696],[-74.3133,3.864],[-74.3124,3.8623],[-74.3092,3.8597],[-74.3062,3.8547],[-74.3051,3.8512],[-74.3082,3.8426],[-74.3081,3.8417],[-74.3065,3.8406],[-74.3035,3.8401],[-74.3013,3.84],[-74.2997,3.8391],[-74.2977,3.8358],[-74.2975,3.8348],[-74.2957,3.8325],[-74.2948,3.8295],[-74.295,3.8268],[-74.2959,3.8241],[-74.2961,3.8222],[-74.2967,3.8204],[-74.299,3.8186],[-74.3018,3.8192],[-74.3036,3.8186],[-74.3073,3.8191],[-74.31,3.8179],[-74.3129,3.817],[-74.3138,3.8172],[-74.3174,3.8155],[-74.3183,3.8153],[-74.3186,3.8172],[-74.3185,3.8191],[-74.319,3.8219],[-74.3189,3.8228],[-74.3194,3.8246],[-74.3206,3.8261],[-74.3216,3.8262],[-74.3233,3.8257],[-74.3251,3.8263],[-74.3274,3.8281],[-74.3283,3.828],[-74.3294,3.8244],[-74.3306,3.8229],[-74.3326,3.8227],[-74.3334,3.8223],[-74.3346,3.8188],[-74.3363,3.8179],[-74.3373,3.8144],[-74.3382,3.8141],[-74.3398,3.8118],[-74.3405,3.8124],[-74.343,3.8138],[-74.3439,3.8139],[-74.3456,3.8129],[-74.3497,3.8093],[-74.3524,3.8086],[-74.3544,3.8088],[-74.3552,3.8083],[-74.3538,3.807],[-74.3533,3.8033],[-74.3534,3.8015],[-74.3539,3.8007],[-74.3566,3.7997],[-74.3582,3.7987],[-74.3594,3.7972],[-74.3614,3.7939],[-74.3628,3.7927],[-74.3641,3.7902],[-74.3647,3.7883],[-74.3655,3.7879],[-74.3674,3.7884],[-74.3689,3.7895],[-74.3707,3.7891],[-74.3724,3.7879],[-74.3743,3.7858],[-74.3761,3.7815],[-74.3752,3.7789],[-74.3756,3.7771],[-74.3766,3.7756],[-74.3775,3.7755],[-74.379,3.7768],[-74.3808,3.7772],[-74.3837,3.7751],[-74.3846,3.775],[-74.3861,3.7738],[-74.3894,3.7722],[-74.3921,3.7713],[-74.3928,3.7708],[-74.3913,3.7684],[-74.3891,3.7655],[-74.3882,3.7638],[-74.3864,3.7617],[-74.3856,3.7591],[-74.3856,3.7572],[-74.3862,3.7536],[-74.3883,3.7517],[-74.3902,3.7514],[-74.3914,3.7529],[-74.3937,3.7546],[-74.3963,3.7539],[-74.3978,3.7528],[-74.3977,3.7491],[-74.397,3.7465],[-74.3975,3.7447],[-74.3989,3.7435],[-74.3998,3.7418],[-74.4003,3.739],[-74.4008,3.7383],[-74.4053,3.7382],[-74.4069,3.7392],[-74.4081,3.7407],[-74.4108,3.7407],[-74.4124,3.7415],[-74.4143,3.7417],[-74.416,3.7423],[-74.4188,3.7426],[-74.4233,3.7427],[-74.4242,3.7422],[-74.4274,3.7388],[-74.4306,3.7368],[-74.4312,3.7361],[-74.4346,3.7342],[-74.4361,3.7329],[-74.4373,3.731],[-74.4385,3.7321],[-74.4403,3.7328],[-74.4413,3.7344],[-74.4428,3.7355],[-74.4446,3.736],[-74.4467,3.739],[-74.4474,3.7416],[-74.4489,3.7441],[-74.4491,3.7459],[-74.4498,3.7486],[-74.4496,3.7505],[-74.4476,3.7535],[-74.4468,3.7539],[-74.4456,3.7564],[-74.4435,3.7582],[-74.4399,3.7586],[-74.4392,3.7592],[-74.4375,3.7624],[-74.4347,3.7646],[-74.433,3.7652],[-74.4328,3.7671],[-74.4333,3.7688],[-74.4332,3.7725],[-74.4317,3.7759],[-74.4324,3.7776],[-74.432,3.7793],[-74.4327,3.7798],[-74.4301,3.7856],[-74.4284,3.7855],[-74.4268,3.7864],[-74.4252,3.7854],[-74.4238,3.7866],[-74.4217,3.7898],[-74.4209,3.7914],[-74.4205,3.7932],[-74.4172,3.7946],[-74.4159,3.7971],[-74.4134,3.7997],[-74.4143,3.8013],[-74.4135,3.8039],[-74.4125,3.8054],[-74.411,3.8064],[-74.4086,3.8094],[-74.4066,3.8112],[-74.4064,3.8131],[-74.4047,3.8139],[-74.4039,3.8155],[-74.4034,3.8173],[-74.4016,3.8195],[-74.3994,3.8212],[-74.3962,3.8247],[-74.3946,3.8341],[-74.3931,3.8375],[-74.3926,3.8411],[-74.3911,3.8423],[-74.3914,3.8441],[-74.391,3.8469],[-74.3902,3.8474],[-74.3899,3.8492],[-74.3904,3.851],[-74.3895,3.8526],[-74.3882,3.854],[-74.3869,3.8564],[-74.3868,3.8573],[-74.3876,3.8578],[-74.3866,3.8614],[-74.386,3.8622],[-74.3873,3.8634],[-74.3874,3.8643],[-74.386,3.8687],[-74.3845,3.8697],[-74.3836,3.8695],[-74.3834,3.8712],[-74.3828,3.8729],[-74.3812,3.8737],[-74.3796,3.8737],[-74.3781,3.8748],[-74.3772,3.8765],[-74.3754,3.8767],[-74.3746,3.8783],[-74.3734,3.8798],[-74.3722,3.8833],[-74.3717,3.8861],[-74.3704,3.8874],[-74.3702,3.8894],[-74.3694,3.8911],[-74.369,3.893],[-74.368,3.8956],[-74.3666,3.898],[-74.3652,3.8992],[-74.365,3.9002],[-74.364,3.9018],[-74.3632,3.9045],[-74.363,3.9063],[-74.3635,3.9079],[-74.3619,3.9089],[-74.361,3.9105],[-74.3598,3.914],[-74.3598,3.915],[-74.3608,3.9177],[-74.3597,3.9193],[-74.3589,3.9219],[-74.3582,3.9256],[-74.3581,3.9275],[-74.3574,3.9292],[-74.3569,3.9347],[-74.3555,3.9382],[-74.3549,3.941],[-74.3548,3.9438],[-74.3567,3.947],[-74.3563,3.9487],[-74.3567,3.9506],[-74.3559,3.9522],[-74.3568,3.9548],[-74.3564,3.9576],[-74.3568,3.9584],[-74.357,3.9612],[-74.3561,3.9613],[-74.3556,3.9639],[-74.3563,3.9657],[-74.3567,3.9703],[-74.3578,3.972],[-74.3592,3.9731],[-74.36,3.9749],[-74.3614,3.9763],[-74.363,3.9798],[-74.3636,3.9805],[-74.3661,3.9819],[-74.368,3.9819],[-74.3697,3.9826],[-74.3719,3.9845],[-74.3744,3.9859],[-74.3745,3.9868],[-74.3738,3.9885],[-74.3715,3.9899],[-74.3705,3.9925],[-74.3707,3.9943],[-74.3696,3.9968],[-74.3685,3.9982],[-74.3673,4.0006],[-74.3668,4.0024],[-74.3641,4.0049],[-74.3629,4.0095],[-74.3625,4.0123],[-74.3628,4.0151],[-74.3633,4.017],[-74.363,4.0197],[-74.3641,4.0212],[-74.3636,4.023],[-74.3637,4.0249],[-74.365,4.0285],[-74.3652,4.0304],[-74.3648,4.0331],[-74.3661,4.0345],[-74.3666,4.0362],[-74.3653,4.0387],[-74.3643,4.0413],[-74.3643,4.0434],[-74.3631,4.0458],[-74.3618,4.0472],[-74.3611,4.0489],[-74.3578,4.0505],[-74.3553,4.052],[-74.354,4.0541],[-74.3515,4.0568],[-74.3505,4.0604],[-74.3506,4.0622],[-74.3511,4.064],[-74.3509,4.0658],[-74.3516,4.0675],[-74.351,4.0702],[-74.3501,4.0718],[-74.3509,4.0734],[-74.3509,4.0752],[-74.3499,4.0767],[-74.3498,4.0784],[-74.3489,4.0786],[-74.3478,4.0811],[-74.3479,4.0829],[-74.3465,4.0841],[-74.3468,4.0861],[-74.3452,4.0884],[-74.3449,4.0914],[-74.345,4.0942],[-74.3431,4.0974],[-74.342,4.0989],[-74.342,4.0999],[-74.343,4.1014],[-74.3396,4.1033],[-74.3395,4.1051],[-74.3379,4.1062],[-74.3368,4.1076],[-74.3354,4.11],[-74.3351,4.1137],[-74.3336,4.1146],[-74.3325,4.1162],[-74.3306,4.1205],[-74.3307,4.1233],[-74.3296,4.1247],[-74.3298,4.1267],[-74.3308,4.1293],[-74.33,4.1309],[-74.3283,4.1303],[-74.3272,4.1288],[-74.3219,4.1264],[-74.3192,4.1257],[-74.3171,4.1226],[-74.315,4.1205],[-74.3139,4.119],[-74.3105,4.1156],[-74.3087,4.1148],[-74.3075,4.1123],[-74.3049,4.1095],[-74.3035,4.1084],[-74.3007,4.1073],[-74.2999,4.1056],[-74.299,4.1056],[-74.2956,4.1042],[-74.2917,4.1036],[-74.286,4.1024],[-74.283,4.1024],[-74.2802,4.1021],[-74.2752,4.0993],[-74.2734,4.0991],[-74.2725,4.0985],[-74.2708,4.0962],[-74.2689,4.0941],[-74.2672,4.0932],[-74.2665,4.0925],[-74.2639,4.0912],[-74.2601,4.0908],[-74.2585,4.0917],[-74.2572,4.0931],[-74.2563,4.0948],[-74.2548,4.0985],[-74.2538,4.1001],[-74.2519,4.1021],[-74.2492,4.1017],[-74.2465,4.1022],[-74.2454,4.1037],[-74.2452,4.1056],[-74.2455,4.1084],[-74.2464,4.1122],[-74.2464,4.1142],[-74.2451,4.1187],[-74.245,4.1225],[-74.2446,4.1273],[-74.2432,4.1308],[-74.2429,4.1337],[-74.2432,4.1356],[-74.2449,4.138],[-74.2456,4.1409],[-74.2449,4.1426],[-74.244,4.1471],[-74.2436,4.148],[-74.2428,4.1545],[-74.2434,4.1582],[-74.2429,4.1628],[-74.2421,4.1655],[-74.2418,4.1683],[-74.2402,4.1718],[-74.2401,4.1755],[-74.2412,4.181],[-74.2404,4.1837],[-74.2402,4.1865],[-74.2408,4.1872],[-74.2434,4.188],[-74.2447,4.1893],[-74.2449,4.1903],[-74.2449,4.193],[-74.2442,4.1958],[-74.2433,4.1974],[-74.2416,4.1977],[-74.2392,4.1962],[-74.2374,4.1965],[-74.2367,4.2],[-74.235,4.2022],[-74.2351,4.204],[-74.2347,4.2059],[-74.2337,4.2074],[-74.2331,4.2121],[-74.232,4.2146],[-74.2315,4.2173],[-74.2302,4.2186],[-74.2281,4.222],[-74.2245,4.2223],[-74.2196,4.2265],[-74.2195,4.2293],[-74.2188,4.2329],[-74.2162,4.237],[-74.2152,4.2378],[-74.2091,4.2413],[-74.2063,4.2419],[-74.2062,4.2428],[-74.2077,4.244],[-74.2087,4.2457],[-74.2088,4.2475],[-74.2064,4.2516],[-74.205,4.2529],[-74.2051,4.2549],[-74.2064,4.2574],[-74.2069,4.2604],[-74.2064,4.2622],[-74.2076,4.2636],[-74.2061,4.2659],[-74.2055,4.2677],[-74.2058,4.2697],[-74.2055,4.2729]]]}}]}